STARLINK-31077          
1 58637U 23203V   25300.79244318  .00000062  00000+0  11788-4 0  9993
2 58637  43.0007  97.8751 0001337 271.8398  88.2301 15.27571764104466
STARLINK-31078          
1 58638U 23203W   25299.80779000 -.00000857  00000+0 -21618-4 0  9991
2 58638  43.0011 103.3824 0001363 281.2480  78.8218 15.27577652103083
STARLINK-31070          
1 58639U 23203X   25300.80271099  .00002785  00000+0  11066-3 0  9995
2 58639  43.0003  97.9488 0001314 279.9500  80.1203 15.27585830103236
STARLINK-31090          
1 58640U 23203Y   25300.78040297  .00000545  00000+0  29316-4 0  9998
2 58640  42.9980  89.9988 0001420 273.4167  86.6522 15.27584625103339
STARLINK-31113          
1 58668U 23211B   25300.53364505  .00010766  00000+0  39981-3 0  9995
2 58668  42.9992 116.9738 0001253 273.1478  86.9230 15.27608486102107
STARLINK-31128          
1 58669U 23211C   25300.48499283 -.00004521  00000+0 -15502-3 0  9999
2 58669  43.0021 117.4666 0000655 261.5288  98.5489 15.27553059102092
STARLINK-31083          
1 58670U 23211D   25300.52980852  .00001391  00000+0  60048-4 0  9999
2 58670  42.9993 116.9446 0001039 269.4696  90.6037 15.27575557102108
STARLINK-30828          
1 58671U 23211E   25300.49525731  .00001115  00000+0  50039-4 0  9990
2 58671  43.0019 117.5374 0001418 270.6344  89.4346 15.27581173102090
STARLINK-31104          
1 58672U 23211F   25300.52594843  .00001416  00000+0  60951-4 0  9993
2 58672  42.9998 116.9154 0000992 282.8439  77.2302 15.27581132103385
STARLINK-31131          
1 58673U 23211G   25300.53509985 -.00001170  00000+0 -33021-4 0  9995
2 58673  43.0012 106.4593 0001621 270.4677  89.5988 15.27567135103500
STARLINK-31124          
1 58674U 23211H   25300.92983284  .00003638  00000+0  14163-3 0  9991
2 58674  43.0009 114.7887 0001364 274.6272  85.4424 15.27582768102166
STARLINK-31126          
1 58675U 23211J   25300.52209747 -.00001104  00000+0 -30598-4 0  9992
2 58675  43.0022 116.8788 0001028 263.3287  96.7448 15.27579459102101
STARLINK-31066          
1 58676U 23211K   25300.17184708  .00005340  00000+0  41033-3 0  9992
2 58676  43.0051 240.1845 0000895 269.2287  90.8453 15.02511286101900
STARLINK-31058          
1 58677U 23211L   25300.86701021 -.00002287  00000+0 -73629-4 0  9998
2 58677  43.0030 115.1793 0001595 272.8644  87.2025 15.27570150102151
STARLINK-31125          
1 58678U 23211M   25300.89011872 -.00000554  00000+0 -10592-4 0  9995
2 58678  43.0038 115.3426 0002922 260.8645  99.1876 15.27578030103329
STARLINK-31110          
1 58679U 23211N   25300.54395184  .00004903  00000+0  18755-3 0  9997
2 58679  42.9977 117.0529 0000568 295.4562  64.6230 15.27580559102104
STARLINK-31112          
1 58680U 23211P   25300.55166599  .00008343  00000+0  31255-3 0  9998
2 58680  43.0031 117.1069 0001828 254.2171 105.8479 15.27559546103283
STARLINK-31147          
1 58681U 23211Q   25300.56706719  .00001519  00000+0  64727-4 0  9993
2 58681  43.0012 117.2181 0001722 272.7632  87.3023 15.27581402102104
STARLINK-31144          
1 58682U 23211R   25300.52466467  .00008934  00000+0  33372-3 0  9992
2 58682  43.0006 116.8985 0001229 273.8464  86.2247 15.27584189102103
STARLINK-31095          
1 58683U 23211S   25300.90684933  .00000461  00000+0  26268-4 0  9999
2 58683  43.0008 115.4698 0001285 273.9374  86.1331 15.27579012103423
STARLINK-31107          
1 58684U 23211T   25300.52095685  .00003453  00000+0  13494-3 0  9998
2 58684  43.0004 117.7337 0001249 271.2383  88.8326 15.27583066102095
STARLINK-31121          
1 58685U 23211U   25300.52851817  .00002115  00000+0  86369-4 0  9992
2 58685  43.0006 116.9269 0001103 265.7040  94.3686 15.27578971102102
STARLINK-31137          
1 58686U 23211V   25300.56450166  .00000713  00000+0  35450-4 0  9996
2 58686  42.9991 117.1918 0001372 255.1529 104.9170 15.27576416102109
STARLINK-31139          
1 58688U 23211X   25300.83334491  .00120409  00000+0  39263-2 0  9999
2 58688  42.9983 114.8662 0005379 284.1852 108.1140 15.30635992  5647
STARLINK-31106          
1 58689U 23211Y   25300.55678848  .00000015  00000+0  10083-4 0  9997
2 58689  43.0025 117.1400 0001381 264.2431  95.8263 15.27579064102104
STARLINK-11072 [DTC]    
1 58705U 24002A   25300.91523231  .00001317  00000+0  15734-4 0  9994
2 58705  53.1592 208.5469 0001458  91.2403 268.8782 15.69708937105588
STARLINK-11075 [DTC]    
1 58706U 24002B   25300.92014625 -.00001502  00000+0 -75534-5 0  9991
2 58706  53.1577 208.5858 0000674 107.4572 252.6519 15.69693147105585
STARLINK-11077 [DTC]    
1 58707U 24002C   25300.92504386  .00000276  00000+0  71295-5 0  9995
2 58707  53.1595 208.5980 0000851 100.2471 259.8643 15.69708487105589
STARLINK-11079 [DTC]    
1 58708U 24002D   25300.91032254  .00002331  00000+0  24074-4 0  9991
2 58708  53.1601 208.5112 0001086 105.9097 254.2041 15.69725718105589
STARLINK-11076 [DTC]    
1 58709U 24002E   25300.96908175  .00001290  00000+0  15505-4 0  9993
2 58709  53.1592 208.1709 0001566 148.5469 211.5643 15.69717722105597
