OBJECT_NAME,OBJECT_ID,EPOCH,MEAN_MOTION,ECCENTRICITY,INCLINATION,RA_OF_ASC_NODE,ARG_OF_PERICENTER,MEAN_ANOMALY,EPHEMERIS_TYPE,CLASSIFICATION_TYPE,NORAD_CAT_ID,ELEMENT_SET_NO,REV_AT_EPOCH,BSTAR,MEAN_MOTION_DOT,MEAN_MOTION_DDOT
STARLINK-31077,2023-203V,2025-10-27T19:01:07.090752,15.27571764,.00013377,43.0007,97.8751,271.8398,88.2301,0,U,58637,999,10446,.11788218E-4,.62E-6,0
STARLINK-31078,2023-203W,2025-10-26T19:23:13.056000,15.27577652,.0001363,43.0011,103.3824,281.2480,78.8218,0,U,58638,999,10308,-.21618E-4,-.857E-5,0
STARLINK-31070,2023-203X,2025-10-27T19:15:54.229536,15.27585830,.00013144,43.0003,97.9488,279.9500,80.1203,0,U,58639,999,10323,.11066291E-3,.2785E-4,0
STARLINK-31090,2023-203Y,2025-10-27T18:43:46.816608,15.27584625,.00014201,42.9980,89.9988,273.4167,86.6522,0,U,58640,999,10333,.29315752E-4,.545E-5,0
STARLINK-31113,2023-211B,2025-10-27T12:48:26.932320,15.27608486,.00012531,42.9992,116.9738,273.1478,86.9230,0,U,58668,999,10210,.39981486E-3,.10766E-3,0
STARLINK-31128,2023-211C,2025-10-27T11:38:23.380512,15.27553059,.00006559,43.0021,117.4666,261.5288,98.5489,0,U,58669,999,10209,-.15501836E-3,-.4521E-4,0
STARLINK-31083,2023-211D,2025-10-27T12:42:55.456128,15.27575557,.00010394,42.9993,116.9446,269.4696,90.6037,0,U,58670,999,10210,.60048306E-4,.1391E-4,0
STARLINK-30828,2023-211E,2025-10-27T11:53:10.231584,15.27581173,.00014181,43.0019,117.5374,270.6344,89.4346,0,U,58671,999,10209,.50038863E-4,.1115E-4,0
STARLINK-31104,2023-211F,2025-10-27T12:37:21.944352,15.27581132,.00009923,42.9998,116.9154,282.8439,77.2302,0,U,58672,999,10338,.60951114E-4,.1416E-4,0
STARLINK-31131,2023-211G,2025-10-27T12:50:32.627040,15.27567135,.00016219,43.0012,106.4593,270.4677,89.5988,0,U,58673,999,10350,-.33020656E-4,-.117E-4,0
STARLINK-31124,2023-211H,2025-10-27T22:18:57.557376,15.27582768,.00013641,43.0009,114.7887,274.6272,85.4424,0,U,58674,999,10216,.14163188E-3,.3638E-4,0
STARLINK-31126,2023-211J,2025-10-27T12:31:49.221408,15.27579459,.00010281,43.0022,116.8788,263.3287,96.7448,0,U,58675,999,10210,-.30598336E-4,-.1104E-4,0
STARLINK-31066,2023-211K,2025-10-27T04:07:27.587712,15.02511286,.00008954,43.0051,240.1845,269.2287,90.8453,0,U,58676,999,10190,.41032567E-3,.534E-4,0
STARLINK-31058,2023-211L,2025-10-27T20:48:29.682144,15.27570150,.0001595,43.0030,115.1793,272.8644,87.2025,0,U,58677,999,10215,-.73628804E-4,-.2287E-4,0
STARLINK-31125,2023-211M,2025-10-27T21:21:46.257408,15.27578030,.00029229,43.0038,115.3426,260.8645,99.1876,0,U,58678,999,10332,-.1059166E-4,-.554E-5,0
STARLINK-31110,2023-211N,2025-10-27T13:03:17.438976,15.27580559,.00005688,42.9977,117.0529,295.4562,64.6230,0,U,58679,999,10210,.18754971E-3,.4903E-4,0
STARLINK-31112,2023-211P,2025-10-27T13:14:23.941536,15.27559546,.00018282,43.0031,117.1069,254.2171,105.8479,0,U,58680,999,10328,.3125539E-3,.8343E-4,0
STARLINK-31147,2023-211Q,2025-10-27T13:36:34.605216,15.27581402,.0001722,43.0012,117.2181,272.7632,87.3023,0,U,58681,999,10210,.64726663E-4,.1519E-4,0
STARLINK-31144,2023-211R,2025-10-27T12:35:31.027488,15.27584189,.00012299,43.0006,116.8985,273.8464,86.2247,0,U,58682,999,10210,.33372413E-3,.8934E-4,0
STARLINK-31095,2023-211S,2025-10-27T21:45:51.782112,15.27579012,.00012856,43.0008,115.4698,273.9374,86.1331,0,U,58683,999,10342,.26268244E-4,.461E-5,0
STARLINK-31107,2023-211T,2025-10-27T12:30:10.671840,15.27583066,.00012496,43.0004,117.7337,271.2383,88.8326,0,U,58684,999,10209,.1349396E-3,.3453E-4,0
STARLINK-31121,2023-211U,2025-10-27T12:41:03.969888,15.27578971,.00011032,43.0006,116.9269,265.7040,94.3686,0,U,58685,999,10210,.86368846E-4,.2115E-4,0
STARLINK-31137,2023-211V,2025-10-27T13:32:52.943424,15.27576416,.0001372,42.9991,117.1918,255.1529,104.9170,0,U,58686,999,10210,.35449999E-4,.713E-5,0
STARLINK-31139,2023-211X,2025-10-27T20:00:01.000224,15.30635992,.00053795,42.9983,114.8662,284.1852,108.1140,0,U,58688,999,564,.39262623E-2,.120409E-2,0
STARLINK-31106,2023-211Y,2025-10-27T13:21:46.524672,15.27579064,.00013818,43.0025,117.1400,264.2431,95.8263,0,U,58689,999,10210,.10083177E-4,.15E-6,0
STARLINK-11072 [DTC],2024-002A,2025-10-27T21:57:56.071584,15.69708937,.00014588,53.1592,208.5469,91.2403,268.8782,0,U,58705,999,10558,.15733697E-4,.1317E-4,0
STARLINK-11075 [DTC],2024-002B,2025-10-27T22:05:00.636000,15.69693147,.00006741,53.1577,208.5858,107.4572,252.6519,0,U,58706,999,10558,-.7553384E-5,-.1502E-4,0
STARLINK-11077 [DTC],2024-002C,2025-10-27T22:12:03.789504,15.69708487,.00008518,53.1595,208.5980,100.2471,259.8643,0,U,58707,999,10558,.7129529E-5,.276E-5,0
STARLINK-11079 [DTC],2024-002D,2025-10-27T21:50:51.867456,15.69725718,.00010865,53.1601,208.5112,105.9097,254.2041,0,U,58708,999,10558,.2407443E-4,.2331E-4,0
STARLINK-11076 [DTC],2024-002E,2025-10-27T23:15:28.663200,15.69717722,.0001566,53.1592,208.1709,148.5469,211.5643,0,U,58709,999,10559,.15504857E-4,.129E-4,0
